STARLINK-33942          
1 63974U 25099Y   26068.29327960  .00029327  00000+0  10712-2 0  9999
2 63974  42.9980 175.1620 0001354 257.2430 102.8270 15.27573374 47310
BANDWAGON-4 OBJECT P    
1 66306U 25248P   26067.98083108  .00022647  00000+0  92291-3 0  9996
2 66306  45.4037 295.4322 0012078 209.3167 150.7044 15.24098352 19290
